QIANFAN-41              
1 62242U 24232F   25319.80255498  .00000224  00000+0  32883-3 0  9994
2 62242  89.0046  43.9100 0012196 266.4307  93.5450 13.50975507 95618
QIANFAN-42              
1 62243U 24232G   25319.79812340  .00001098  00000+0  46763-3 0  9990
2 62243  89.0038  40.4294 0015878 165.1425 195.0237 14.24449915 97537
QIANFAN-43              
1 62244U 24232H   25319.79837991  .00000231  00000+0  33869-3 0  9991
2 62244  89.0050  43.9745 0013665 272.6902  87.2685 13.50976208 64224
QIANFAN-44              
1 62245U 24232J   25319.78608135  .00000224  00000+0  32798-3 0  9999
2 62245  89.0048  43.7870 0011897 269.0658  90.9130 13.50977746 95691
QIANFAN-45              
1 62246U 24232K   25319.75314712 -.00000049  00000+0 -94102-4 0  9997
2 62246  89.0049  43.9358 0012634 268.9676  91.0028 13.50974412 95611
QIANFAN-46              
1 62247U 24232L   25319.85192461  .00000211  00000+0  30848-3 0  9999
2 62247  89.0048  43.9959 0012567 274.9784  84.9932 13.50972854 95589
QIANFAN-47              
1 62248U 24232M   25319.78197814  .00000233  00000+0  34223-3 0  9994
2 62248  89.0044  43.9370 0013005 274.2385  85.7280 13.50975405 95604
QIANFAN-48              
1 62249U 24232N   25319.81900904  .00000231  00000+0  33920-3 0  9992
2 62249  89.0048  43.9341 0015240 277.2680  82.6739 13.50987267 95616
